CZ-3B DEB               
1 42474U 11077AP  26115.44621981 -.00000072  00000+0  00000+0 0  9995
2 42474  22.4053  97.7893 7149647  56.4027 352.5460  1.66952091 67966
CZ-3B DEB               
1 42475U 11077AQ  26116.27350141  .00000052  00000+0  14706-1 0  9992
2 42475  26.5323 318.5321 7420661 105.4116 340.4814  1.91453131 31895
ARIANE 2 DEB            
1 42485U 89006CM  26116.96642774 -.00000226  00000+0  00000+0 0  9996
2 42485   8.6776  60.5345 6692299 139.5782 301.3264  2.17618510 97455
CHINASAT 16 (SJ-13)     
1 42662U 17018A   26115.86194414 -.00000366  00000+0  00000+0 0  9993
2 42662   0.1045  86.8445 0004633 163.9351  23.8943  1.00274178 33220
KOREASAT 7              
1 42691U 17023A   26117.01608795 -.00000373  00000+0  00000+0 0  9990
2 42691   0.0254 335.4507 0000985  67.2733 293.9761  1.00271453 32850
SGDC                    
1 42692U 17023B   26116.61186121  .00000000  00000+0  00000+0 0  9996
2 42692   0.0151  97.1049 0002832 309.8345 313.0843  1.00271005 32888
GSAT-9                  
1 42695U 17024A   26117.34211375 -.00000296  00000+0  00000+0 0  9999
2 42695   0.0495  61.7524 0002337 336.4276  37.6268  1.00274785 32783
INMARSAT 5-F4           
1 42698U 17025A   26116.79461138  .00000000  00000+0  00000+0 0  9997
2 42698   0.0149 239.8152 0000040 169.6636 147.8970  1.00271426 32763
SES-15                  
1 42709U 17026A   26117.49968382  .00000051  00000+0  00000+0 0  9998
2 42709   0.0241 329.4404 0000646  44.3062 252.4676  1.00270232  6928
COSMOS 2518             
1 42719U 17027A   26117.32035128 -.00001385  00000+0  00000+0 0  9997
2 42719  63.0848 254.5399 6998373 273.5964  15.6345  2.00954573 65383
QZS-2 (MICHIBIKI-2)     
1 42738U 17028A   26116.23428738 -.00000266  00000+0  00000+0 0  9998
2 42738  39.5095 243.9120 0740318 270.8047 281.9812  1.00247520  7109
VIASAT-2                
1 42740U 17029A   26117.48341066 -.00000274  00000+0  00000+0 0  9997
2 42740   0.0171 268.8245 0000272 109.1887 301.5897  1.00271515 32693
EUTELSAT 172B           
1 42741U 17029B   26117.46368899 -.00000015  00000+0  00000+0 0  9992
2 42741   0.0187 174.5083 0000098 108.1500 271.7063  1.00271874 33233
GSAT-19                 
1 42747U 17031A   26117.25877976  .00000115  00000+0  00000+0 0  9999
2 42747   0.0134 242.6585 0006976 167.0660 306.5721  1.00271644 32633
ECHOSTAR 21             
1 42749U 17032A   26117.32336458  .00000053  00000+0  00000+0 0  9996
2 42749   1.7794 352.4115 0002425  37.0061 312.5468  1.00271622 32585
ZHONGXING-9A            
1 42763U 17035A   26117.10947521  .00000048  00000+0  00000+0 0  9994
2 42763   4.8558  75.8440 0005813 302.2911 256.9910  0.99787689 33143
BULGARIASAT-1           
1 42801U 17038A   26117.22267126  .00000000  00000+0  00000+0 0  9997
2 42801   0.0178 118.2501 0003570 294.6274 244.3972  1.00270530 32330
