[{"OBJECT_NAME":"CZ-3B DEB","OBJECT_ID":"2011-077AP","EPOCH":"2026-04-25T10:42:33.391584","MEAN_MOTION":1.66952091,"ECCENTRICITY":0.71496476,"INCLINATION":22.4053,"RA_OF_ASC_NODE":97.7893,"ARG_OF_PERICENTER":56.4027,"MEAN_ANOMALY":352.546,"EPHEMERIS_TYPE":0,"CLASSIFICATION_TYPE":"U","NORAD_CAT_ID":42474,"ELEMENT_SET_NO":999,"REV_AT_EPOCH":6796,"BSTAR":0,"MEAN_MOTION_DOT":-7.2e-7,"MEAN_MOTION_DDOT":0},{"OBJECT_NAME":"CZ-3B DEB","OBJECT_ID":"2011-077AQ","EPOCH":"2026-04-26T06:33:50.521824","MEAN_MOTION":1.91453131,"ECCENTRICITY":0.74206611,"INCLINATION":26.5323,"RA_OF_ASC_NODE":318.5321,"ARG_OF_PERICENTER":105.4116,"MEAN_ANOMALY":340.4814,"EPHEMERIS_TYPE":0,"CLASSIFICATION_TYPE":"U","NORAD_CAT_ID":42475,"ELEMENT_SET_NO":999,"REV_AT_EPOCH":3189,"BSTAR":0.014706208,"MEAN_MOTION_DOT":5.2e-7,"MEAN_MOTION_DDOT":0},{"OBJECT_NAME":"ARIANE 2 DEB","OBJECT_ID":"1989-006CM","EPOCH":"2026-04-26T23:11:39.356736","MEAN_MOTION":2.1761851,"ECCENTRICITY":0.66922997,"INCLINATION":8.6776,"RA_OF_ASC_NODE":60.5345,"ARG_OF_PERICENTER":139.5782,"MEAN_ANOMALY":301.3264,"EPHEMERIS_TYPE":0,"CLASSIFICATION_TYPE":"U","NORAD_CAT_ID":42485,"ELEMENT_SET_NO":999,"REV_AT_EPOCH":9745,"BSTAR":0,"MEAN_MOTION_DOT":-2.26e-6,"MEAN_MOTION_DDOT":0},{"OBJECT_NAME":"CHINASAT 16 (SJ-13)","OBJECT_ID":"2017-018A","EPOCH":"2026-04-25T20:41:11.973696","MEAN_MOTION":1.00274178,"ECCENTRICITY":0.00046336,"INCLINATION":0.1045,"RA_OF_ASC_NODE":86.8445,"ARG_OF_PERICENTER":163.9351,"MEAN_ANOMALY":23.8943,"EPHEMERIS_TYPE":0,"CLASSIFICATION_TYPE":"U","NORAD_CAT_ID":42662,"ELEMENT_SET_NO":999,"REV_AT_EPOCH":3322,"BSTAR":0,"MEAN_MOTION_DOT":-3.66e-6,"MEAN_MOTION_DDOT":0},{"OBJECT_NAME":"KOREASAT 7","OBJECT_ID":"2017-023A","EPOCH":"2026-04-27T00:23:09.998880","MEAN_MOTION":1.00271453,"ECCENTRICITY":9.85e-5,"INCLINATION":0.0254,"RA_OF_ASC_NODE":335.4507,"ARG_OF_PERICENTER":67.2733,"MEAN_ANOMALY":293.9761,"EPHEMERIS_TYPE":0,"CLASSIFICATION_TYPE":"U","NORAD_CAT_ID":42691,"ELEMENT_SET_NO":999,"REV_AT_EPOCH":3285,"BSTAR":0,"MEAN_MOTION_DOT":-3.73e-6,"MEAN_MOTION_DDOT":0},{"OBJECT_NAME":"SGDC","OBJECT_ID":"2017-023B","EPOCH":"2026-04-26T14:41:04.808544","MEAN_MOTION":1.00271005,"ECCENTRICITY":0.00028323,"INCLINATION":0.0151,"RA_OF_ASC_NODE":97.1049,"ARG_OF_PERICENTER":309.8345,"MEAN_ANOMALY":313.0843,"EPHEMERIS_TYPE":0,"CLASSIFICATION_TYPE":"U","NORAD_CAT_ID":42692,"ELEMENT_SET_NO":999,"REV_AT_EPOCH":3288,"BSTAR":0,"MEAN_MOTION_DOT":0,"MEAN_MOTION_DDOT":0},{"OBJECT_NAME":"GSAT-9","OBJECT_ID":"2017-024A","EPOCH":"2026-04-27T08:12:38.628000","MEAN_MOTION":1.00274785,"ECCENTRICITY":0.0002337,"INCLINATION":0.0495,"RA_OF_ASC_NODE":61.7524,"ARG_OF_PERICENTER":336.4276,"MEAN_ANOMALY":37.6268,"EPHEMERIS_TYPE":0,"CLASSIFICATION_TYPE":"U","NORAD_CAT_ID":42695,"ELEMENT_SET_NO":999,"REV_AT_EPOCH":3278,"BSTAR":0,"MEAN_MOTION_DOT":-2.96e-6,"MEAN_MOTION_DDOT":0},{"OBJECT_NAME":"INMARSAT 5-F4","OBJECT_ID":"2017-025A","EPOCH":"2026-04-26T19:04:14.423232","MEAN_MOTION":1.00271426,"ECCENTRICITY":4.08e-6,"INCLINATION":0.0149,"RA_OF_ASC_NODE":239.8152,"ARG_OF_PERICENTER":169.6636,"MEAN_ANOMALY":147.897,"EPHEMERIS_TYPE":0,"CLASSIFICATION_TYPE":"U","NORAD_CAT_ID":42698,"ELEMENT_SET_NO":999,"REV_AT_EPOCH":3276,"BSTAR":0,"MEAN_MOTION_DOT":0,"MEAN_MOTION_DDOT":0},{"OBJECT_NAME":"SES-15","OBJECT_ID":"2017-026A","EPOCH":"2026-04-27T11:59:32.682048","MEAN_MOTION":1.00270232,"ECCENTRICITY":6.46e-5,"INCLINATION":0.0241,"RA_OF_ASC_NODE":329.4404,"ARG_OF_PERICENTER":44.3062,"MEAN_ANOMALY":252.4676,"EPHEMERIS_TYPE":0,"CLASSIFICATION_TYPE":"U","NORAD_CAT_ID":42709,"ELEMENT_SET_NO":999,"REV_AT_EPOCH":692,"BSTAR":0,"MEAN_MOTION_DOT":5.1e-7,"MEAN_MOTION_DDOT":0},{"OBJECT_NAME":"COSMOS 2518","OBJECT_ID":"2017-027A","EPOCH":"2026-04-27T07:41:18.350592","MEAN_MOTION":2.00954573,"ECCENTRICITY":0.6998373,"INCLINATION":63.0848,"RA_OF_ASC_NODE":254.5399,"ARG_OF_PERICENTER":273.5964,"MEAN_ANOMALY":15.6345,"EPHEMERIS_TYPE":0,"CLASSIFICATION_TYPE":"U","NORAD_CAT_ID":42719,"ELEMENT_SET_NO":999,"REV_AT_EPOCH":6538,"BSTAR":0,"MEAN_MOTION_DOT":-1.385e-5,"MEAN_MOTION_DDOT":0},{"OBJECT_NAME":"QZS-2 (MICHIBIKI-2)","OBJECT_ID":"2017-028A","EPOCH":"2026-04-26T05:37:22.429632","MEAN_MOTION":1.0024752,"ECCENTRICITY":0.07403185,"INCLINATION":39.5095,"RA_OF_ASC_NODE":243.912,"ARG_OF_PERICENTER":270.8047,"MEAN_ANOMALY":281.9812,"EPHEMERIS_TYPE":0,"CLASSIFICATION_TYPE":"U","NORAD_CAT_ID":42738,"ELEMENT_SET_NO":999,"REV_AT_EPOCH":710,"BSTAR":0,"MEAN_MOTION_DOT":-2.66e-6,"MEAN_MOTION_DDOT":0},{"OBJECT_NAME":"VIASAT-2","OBJECT_ID":"2017-029A","EPOCH":"2026-04-27T11:36:06.681024","MEAN_MOTION":1.00271515,"ECCENTRICITY":2.72e-5,"INCLINATION":0.0171,"RA_OF_ASC_NODE":268.8245,"ARG_OF_PERICENTER":109.1887,"MEAN_ANOMALY":301.5897,"EPHEMERIS_TYPE":0,"CLASSIFICATION_TYPE":"U","NORAD_CAT_ID":42740,"ELEMENT_SET_NO":999,"REV_AT_EPOCH":3269,"BSTAR":0,"MEAN_MOTION_DOT":-2.74e-6,"MEAN_MOTION_DDOT":0},{"OBJECT_NAME":"EUTELSAT 172B","OBJECT_ID":"2017-029B","EPOCH":"2026-04-27T11:07:42.728736","MEAN_MOTION":1.00271874,"ECCENTRICITY":9.8e-6,"INCLINATION":0.0187,"RA_OF_ASC_NODE":174.5083,"ARG_OF_PERICENTER":108.15,"MEAN_ANOMALY":271.7063,"EPHEMERIS_TYPE":0,"CLASSIFICATION_TYPE":"U","NORAD_CAT_ID":42741,"ELEMENT_SET_NO":999,"REV_AT_EPOCH":3323,"BSTAR":0,"MEAN_MOTION_DOT":-1.5e-7,"MEAN_MOTION_DDOT":0},{"OBJECT_NAME":"GSAT-19","OBJECT_ID":"2017-031A","EPOCH":"2026-04-27T06:12:38.571264","MEAN_MOTION":1.00271644,"ECCENTRICITY":0.0006976,"INCLINATION":0.0134,"RA_OF_ASC_NODE":242.6585,"ARG_OF_PERICENTER":167.066,"MEAN_ANOMALY":306.5721,"EPHEMERIS_TYPE":0,"CLASSIFICATION_TYPE":"U","NORAD_CAT_ID":42747,"ELEMENT_SET_NO":999,"REV_AT_EPOCH":3263,"BSTAR":0,"MEAN_MOTION_DOT":1.15e-6,"MEAN_MOTION_DDOT":0},{"OBJECT_NAME":"ECHOSTAR 21","OBJECT_ID":"2017-032A","EPOCH":"2026-04-27T07:45:38.699712","MEAN_MOTION":1.00271622,"ECCENTRICITY":0.0002425,"INCLINATION":1.7794,"RA_OF_ASC_NODE":352.4115,"ARG_OF_PERICENTER":37.0061,"MEAN_ANOMALY":312.5468,"EPHEMERIS_TYPE":0,"CLASSIFICATION_TYPE":"U","NORAD_CAT_ID":42749,"ELEMENT_SET_NO":999,"REV_AT_EPOCH":3258,"BSTAR":0,"MEAN_MOTION_DOT":5.3e-7,"MEAN_MOTION_DDOT":0},{"OBJECT_NAME":"ZHONGXING-9A","OBJECT_ID":"2017-035A","EPOCH":"2026-04-27T02:37:38.658144","MEAN_MOTION":0.99787689,"ECCENTRICITY":0.00058136,"INCLINATION":4.8558,"RA_OF_ASC_NODE":75.844,"ARG_OF_PERICENTER":302.2911,"MEAN_ANOMALY":256.991,"EPHEMERIS_TYPE":0,"CLASSIFICATION_TYPE":"U","NORAD_CAT_ID":42763,"ELEMENT_SET_NO":999,"REV_AT_EPOCH":3314,"BSTAR":0,"MEAN_MOTION_DOT":4.8e-7,"MEAN_MOTION_DDOT":0},{"OBJECT_NAME":"BULGARIASAT-1","OBJECT_ID":"2017-038A","EPOCH":"2026-04-27T05:20:38.796864","MEAN_MOTION":1.0027053,"ECCENTRICITY":0.00035704,"INCLINATION":0.0178,"RA_OF_ASC_NODE":118.2501,"ARG_OF_PERICENTER":294.6274,"MEAN_ANOMALY":244.3972,"EPHEMERIS_TYPE":0,"CLASSIFICATION_TYPE":"U","NORAD_CAT_ID":42801,"ELEMENT_SET_NO":999,"REV_AT_EPOCH":3233,"BSTAR":0,"MEAN_MOTION_DOT":0,"MEAN_MOTION_DDOT":0}]
